[{"OBJECT_NAME":"ONEWEB-0633","OBJECT_ID":"2023-043AE","EPOCH":"2026-03-09T19:58:29.720352","MEAN_MOTION":13.15547864,"ECCENTRICITY":0.00019829,"INCLINATION":87.8947,"RA_OF_ASC_NODE":279.0207,"ARG_OF_PERICENTER":96.8679,"MEAN_ANOMALY":263.2677,"EPHEMERIS_TYPE":0,"CLASSIFICATION_TYPE":"U","NORAD_CAT_ID":56074,"ELEMENT_SET_NO":999,"REV_AT_EPOCH":14334,"BSTAR":-0.00014128451,"MEAN_MOTION_DOT":-4.0e-7,"MEAN_MOTION_DDOT":0},{"OBJECT_NAME":"SCOUT A DEB","OBJECT_ID":"1967-092D","EPOCH":"2026-03-09T12:46:23.498688","MEAN_MOTION":13.2596294,"ECCENTRICITY":0.01876111,"INCLINATION":89.0548,"RA_OF_ASC_NODE":97.3023,"ARG_OF_PERICENTER":141.5107,"MEAN_ANOMALY":12.5046,"EPHEMERIS_TYPE":0,"CLASSIFICATION_TYPE":"U","NORAD_CAT_ID":3122,"ELEMENT_SET_NO":999,"REV_AT_EPOCH":56981,"BSTAR":0.0004073723,"MEAN_MOTION_DOT":2.09e-6,"MEAN_MOTION_DDOT":0}]
